{
    "links": {
        "self": "http://www.neowsapp.com/rest/v1/neo/3601616?api_key=iIulBulltgU6a56xZRHN4H3l9WmuAYTsLGpBGhQ2"
    },
    "id": "3601616",
    "neo_reference_id": "3601616",
    "name": "(2012 FX23)",
    "designation": "2012 FX23",
    "nasa_jpl_url": "http://ssd.jpl.nasa.gov/sbdb.cgi?sstr=3601616",
    "absolute_magnitude_h": 26.2,
    "estimated_diameter": {
        "kilometers": {
            "estimated_diameter_min": 0.0152951935,
            "estimated_diameter_max": 0.0342010925
        },
        "meters": {
            "estimated_diameter_min": 15.2951935344,
            "estimated_diameter_max": 34.201092472
        },
        "miles": {
            "estimated_diameter_min": 0.0095039897,
            "estimated_diameter_max": 0.021251567
        },
        "feet": {
            "estimated_diameter_min": 50.1810827555,
            "estimated_diameter_max": 112.2083122258
        }
    },
    "is_potentially_hazardous_asteroid": false,
    "close_approach_data": [
        {
            "close_approach_date": "2012-03-28",
            "close_approach_date_full": "2012-Mar-28 11:28",
            "epoch_date_close_approach": 1332934080000,
            "relative_velocity": {
                "kilometers_per_second": "9.2855395494",
                "kilometers_per_hour": "33427.9423776977",
                "miles_per_hour": "20770.8234179644"
            },
            "miss_distance": {
                "astronomical": "0.0572006163",
                "lunar": "22.2510397407",
                "kilometers": "8557090.361167281",
                "miles": "5317129.3918632378"
            },
            "orbiting_body": "Earth"
        }
    ],
    "orbital_data": {
        "orbit_id": "4",
        "orbit_determination_date": "2017-04-06 08:50:22",
        "first_observation_date": "2012-03-23",
        "last_observation_date": "2012-03-24",
        "data_arc_in_days": 1,
        "observations_used": 17,
        "orbit_uncertainty": "8",
        "minimum_orbit_intersection": ".0537068",
        "jupiter_tisserand_invariant": "3.696",
        "epoch_osculation": "2456010.5",
        "eccentricity": ".4766310308591206",
        "semi_major_axis": "1.976299133990067",
        "inclination": "11.21874851605226",
        "ascending_node_longitude": "183.1587665304014",
        "orbital_period": "1014.79296392414",
        "perihelion_distance": "1.034333640470394",
        "perihelion_argument": "22.63982905870204",
        "aphelion_distance": "2.91826462750974",
        "perihelion_time": "2456029.753099652632",
        "mean_anomaly": "353.1699212338393",
        "mean_motion": ".3547521640354134",
        "equinox": "J2000",
        "orbit_class": {
            "orbit_class_type": "AMO",
            "orbit_class_description": "Near-Earth asteroid orbits similar to that of 1221 Amor",
            "orbit_class_range": "1.017 AU < q (perihelion) < 1.3 AU"
        }
    },
    "is_sentry_object": false
}